start=new Date('2021-11-10T00:00:00.000Z').valueOf();
sats=[{"NORAD_CAT_ID":"46064","ECCENTRICITY":"0.00009360","SEMIMAJOR_AXIS":"6925.464","SITE":"AFETR","REV_AT_EPOCH":"7070","INCLINATION":"53.0554","MEAN_MOTION_DOT":"0.00014689","CLASSIFICATION_TYPE":"U","RA_OF_ASC_NODE":"15.0177","COUNTRY_CODE":"US","OBJECT_ID":"2020-055AP","ELEMENT_SET_NO":"999","EPHEMERIS_TYPE":"0","BSTAR":"0.00100400000000","CENTER_NAME":"EARTH","EPOCH":"2021-11-09T11:05:07.493856","TLE_LINE1":"1 46064U 20055AP  21313.46189229  .00014689  00000-0  10040-2 0  9998","LAUNCH_DATE":"2020-08-07","TIME_SYSTEM":"UTC","OBJECT_NAME":"STARLINK-1583","PERIAPSIS":"546.681","MEAN_ELEMENT_THEORY":"SGP4","RCS_SIZE":"LARGE","GP_ID":"189335371","APOAPSIS":"547.977","MEAN_MOTION_DDOT":"0.0000000000000","DECAY_DATE":null,"ARG_OF_PERICENTER":"88.9690","FILE":"3210161","REF_FRAME":"TEME","MEAN_MOTION":"15.06362419","MEAN_ANOMALY":"271.1406","OBJECT_TYPE":"PAYLOAD","PERIOD":"95.595","TLE_LINE2":"2 46064  53.0554  15.0177 0000936  88.9690 271.1406 15.06362419 70705"},{"NORAD_CAT_ID":"46065","ECCENTRICITY":"0.00013480","SEMIMAJOR_AXIS":"6925.354","SITE":"AFETR","REV_AT_EPOCH":"7097","INCLINATION":"53.0506","MEAN_MOTION_DOT":"0.00005646","CLASSIFICATION_TYPE":"U","RA_OF_ASC_NODE":"354.7901","COUNTRY_CODE":"US","OBJECT_ID":"2020-055AQ","ELEMENT_SET_NO":"999","BSTAR":"0.00039765000000","EPHEMERIS_TYPE":"0","CENTER_NAME":"EARTH","EPOCH":"2021-11-09T12:31:21.786816","TLE_LINE1":"1 46065U 20055AQ  21313.52177994  .00005646  00000-0  39765-3 0  9991","LAUNCH_DATE":"2020-08-07","TIME_SYSTEM":"UTC","OBJECT_NAME":"STARLINK-1515","PERIAPSIS":"546.285","MEAN_ELEMENT_THEORY":"SGP4","RCS_SIZE":"LARGE","GP_ID":"189336622","MEAN_MOTION_DDOT":"0.0000000000000","APOAPSIS":"548.153","DECAY_DATE":null,"ARG_OF_PERICENTER":"78.4267","FILE":"3210161","REF_FRAME":"TEME","MEAN_ANOMALY":"281.6873","MEAN_MOTION":"15.06398229","OBJECT_TYPE":"PAYLOAD","PERIOD":"95.592","TLE_LINE2":"2 46065  53.0506 354.7901 0001348  78.4267 281.6873 15.06398229 70974"},{"ELEMENT_SET_NO":"999","CLASSIFICATION_TYPE":"U","RA_OF_ASC_NODE":"354.7401","COUNTRY_CODE":"US","OBJECT_ID":"2020-055AR","CENTER_NAME":"EARTH","EPOCH":"2021-11-09T12:37:58.945152","TLE_LINE1":"1 46066U 20055AR  21313.52637668  .00006189  00000-0  43393-3 0  9996","LAUNCH_DATE":"2020-08-07","BSTAR":"0.00043393000000","EPHEMERIS_TYPE":"0","NORAD_CAT_ID":"46066","ECCENTRICITY":"0.00014190","SEMIMAJOR_AXIS":"6925.326","REV_AT_EPOCH":"7098","INCLINATION":"53.0546","MEAN_MOTION_DOT":"0.00006189","SITE":"AFETR","DECAY_DATE":null,"ARG_OF_PERICENTER":"76.8443","MEAN_MOTION_DDOT":"0.0000000000000","APOAPSIS":"548.173","OBJECT_TYPE":"PAYLOAD","PERIOD":"95.592","TLE_LINE2":"2 46066  53.0546 354.7401 0001419  76.8443 283.2704 15.06407447 70986","FILE":"3210161","REF_FRAME":"TEME","MEAN_MOTION":"15.06407447","MEAN_ANOMALY":"283.2704","MEAN_ELEMENT_THEORY":"SGP4","PERIAPSIS":"546.208","RCS_SIZE":"LARGE","TIME_SYSTEM":"UTC","OBJECT_NAME":"STARLINK-1525","GP_ID":"189336873"},{"MEAN_ANOMALY":"281.9190","MEAN_MOTION":"15.06423849","REF_FRAME":"TEME","FILE":"3210180","TLE_LINE2":"2 46067  53.0543 354.4289 0001451  78.1961 281.9190 15.06423849 71003","PERIOD":"95.591","OBJECT_TYPE":"PAYLOAD","MEAN_MOTION_DDOT":"0.0000000000000","APOAPSIS":"548.145","ARG_OF_PERICENTER":"78.1961","DECAY_DATE":null,"GP_ID":"189360373","OBJECT_NAME":"STARLINK-1529","TIME_SYSTEM":"UTC","RCS_SIZE":"LARGE","PERIAPSIS":"546.136","MEAN_ELEMENT_THEORY":"SGP4","EPHEMERIS_TYPE":"0","BSTAR":"0.00045762000000","LAUNCH_DATE":"2020-08-07","TLE_LINE1":"1 46067U 20055AS  21313.59641305  .00006546  00000-0  45762-3 0  9996","EPOCH":"2021-11-09T14:18:50.087520","CENTER_NAME":"EARTH","OBJECT_ID":"2020-055AS","COUNTRY_CODE":"US","RA_OF_ASC_NODE":"354.4289","CLASSIFICATION_TYPE":"U","ELEMENT_SET_NO":"999","SITE":"AFETR","MEAN_MOTION_DOT":"0.00006546","REV_AT_EPOCH":"7100","INCLINATION":"53.0543","SEMIMAJOR_AXIS":"6925.275","NORAD_CAT_ID":"46067","ECCENTRICITY":"0.00014510"},{"ELEMENT_SET_NO":"999","RA_OF_ASC_NODE":"354.3699","CLASSIFICATION_TYPE":"U","OBJECT_ID":"2020-055AT","COUNTRY_CODE":"US","EPOCH":"2021-11-09T14:34:44.251104","CENTER_NAME":"EARTH","TLE_LINE1":"1 46068U 20055AT  21313.60745661 -.00000312  00000-0 -20588-5 0  9997","LAUNCH_DATE":"2020-08-07","BSTAR":"-0.00000205880000","EPHEMERIS_TYPE":"0","ECCENTRICITY":"0.00015660","NORAD_CAT_ID":"46068","SEMIMAJOR_AXIS":"6925.369","INCLINATION":"53.0528","REV_AT_EPOCH":"7100","MEAN_MOTION_DOT":"-0.00000312","SITE":"AFETR","DECAY_DATE":null,"ARG_OF_PERICENTER":"74.6703","MEAN_MOTION_DDOT":"0.0000000000000","APOAPSIS":"548.318","PERIOD":"95.593","OBJECT_TYPE":"PAYLOAD","TLE_LINE2":"2 46068  53.0528 354.3699 0001566  74.6703 285.4459 15.06393440 71003","REF_FRAME":"TEME","FILE":"3210180","MEAN_ANOMALY":"285.4459","MEAN_MOTION":"15.06393440","RCS_SIZE":"LARGE","PERIAPSIS":"546.149","MEAN_ELEMENT_THEORY":"SGP4","TIME_SYSTEM":"UTC","OBJECT_NAME":"STARLINK-1532","GP_ID":"189359121"},{"RCS_SIZE":"LARGE","MEAN_ELEMENT_THEORY":"SGP4","PERIAPSIS":"546.301","TIME_SYSTEM":"UTC","OBJECT_NAME":"STARLINK-1533","GP_ID":"189336123","DECAY_DATE":null,"ARG_OF_PERICENTER":"79.9936","APOAPSIS":"548.144","MEAN_MOTION_DDOT":"0.0000000000000","PERIOD":"95.592","OBJECT_TYPE":"PAYLOAD","TLE_LINE2":"2 46069  53.0539 354.9034 0001331  79.9936 280.1203 15.06397131 70998","REF_FRAME":"TEME","FILE":"3210161","MEAN_ANOMALY":"280.1203","MEAN_MOTION":"15.06397131","NORAD_CAT_ID":"46069","ECCENTRICITY":"0.00013310","SEMIMAJOR_AXIS":"6925.357","INCLINATION":"53.0539","REV_AT_EPOCH":"7099","MEAN_MOTION_DOT":"0.00000595","SITE":"AFETR","ELEMENT_SET_NO":"999","RA_OF_ASC_NODE":"354.9034","CLASSIFICATION_TYPE":"U","OBJECT_ID":"2020-055AU","COUNTRY_CODE":"US","EPOCH":"2021-11-09T11:44:54.525408","CENTER_NAME":"EARTH","TLE_LINE1":"1 46069U 20055AU  21313.48951997  .00000595  00000-0  58850-4 0  9998","LAUNCH_DATE":"2020-08-07","EPHEMERIS_TYPE":"0","BSTAR":"0.00005885000000"},{"TLE_LINE2":"2 46070  53.0534 354.8362 0001463  78.5135 281.6019 15.06405622 70996","PERIOD":"95.592","OBJECT_TYPE":"PAYLOAD","MEAN_MOTION":"15.06405622","MEAN_ANOMALY":"281.6019","REF_FRAME":"TEME","FILE":"3210161","ARG_OF_PERICENTER":"78.5135","DECAY_DATE":null,"MEAN_MOTION_DDOT":"0.0000000000000","APOAPSIS":"548.210","GP_ID":"189336374","RCS_SIZE":"LARGE","MEAN_ELEMENT_THEORY":"SGP4","PERIAPSIS":"546.183","OBJECT_NAME":"STARLINK-1536","TIME_SYSTEM":"UTC","TLE_LINE1":"1 46070U 20055AV  21313.50428966  .00005633  00000-0  39669-3 0  9992","LAUNCH_DATE":"2020-08-07","EPOCH":"2021-11-09T12:06:10.626624","CENTER_NAME":"EARTH","EPHEMERIS_TYPE":"0","BSTAR":"0.00039669000000","ELEMENT_SET_NO":"999","OBJECT_ID":"2020-055AV","COUNTRY_CODE":"US","RA_OF_ASC_NODE":"354.8362","CLASSIFICATION_TYPE":"U","MEAN_MOTION_DOT":"0.00005633","INCLINATION":"53.0534","REV_AT_EPOCH":"7099","SITE":"AFETR","SEMIMAJOR_AXIS":"6925.331","ECCENTRICITY":"0.00014630","NORAD_CAT_ID":"46070"},{"REV_AT_EPOCH":"7098","INCLINATION":"53.0538","MEAN_MOTION_DOT":"0.00005358","SITE":"AFETR","NORAD_CAT_ID":"46071","ECCENTRICITY":"0.00014240","SEMIMAJOR_AXIS":"6925.334","EPOCH":"2021-11-09T10:57:09.726912","CENTER_NAME":"EARTH","TLE_LINE1":"1 46071U 20055AW  21313.45636258  .00005358  00000-0  37830-3 0  9994","LAUNCH_DATE":"2020-08-07","EPHEMERIS_TYPE":"0","BSTAR":"0.00037830000000","ELEMENT_SET_NO":"999","RA_OF_ASC_NODE":"355.0628","CLASSIFICATION_TYPE":"U","OBJECT_ID":"2020-055AW","COUNTRY_CODE":"US","GP_ID":"189335621","RCS_SIZE":"LARGE","PERIAPSIS":"546.213","MEAN_ELEMENT_THEORY":"SGP4","TIME_SYSTEM":"UTC","OBJECT_NAME":"STARLINK-1538","PERIOD":"95.592","OBJECT_TYPE":"PAYLOAD","TLE_LINE2":"2 46071  53.0538 355.0628 0001424  77.0000 283.1148 15.06404782 70986","REF_FRAME":"TEME","FILE":"3210161","MEAN_MOTION":"15.06404782","MEAN_ANOMALY":"283.1148","DECAY_DATE":null,"ARG_OF_PERICENTER":"77.0000","MEAN_MOTION_DDOT":"0.0000000000000","APOAPSIS":"548.185"},{"DECAY_DATE":null,"ARG_OF_PERICENTER":"72.5271","APOAPSIS":"548.218","MEAN_MOTION_DDOT":"0.0000000000000","PERIOD":"95.591","OBJECT_TYPE":"PAYLOAD","TLE_LINE2":"2 46072  53.0545 355.2260 0001520  72.5271 287.5884 15.06415614 70965","REF_FRAME":"TEME","FILE":"3210161","MEAN_ANOMALY":"287.5884","MEAN_MOTION":"15.06415614","RCS_SIZE":"LARGE","PERIAPSIS":"546.113","MEAN_ELEMENT_THEORY":"SGP4","TIME_SYSTEM":"UTC","OBJECT_NAME":"STARLINK-1539","GP_ID":"189335372","ELEMENT_SET_NO":"999","RA_OF_ASC_NODE":"355.2260","CLASSIFICATION_TYPE":"U","OBJECT_ID":"2020-055AX","COUNTRY_CODE":"US","EPOCH":"2021-11-09T09:57:23.656032","CENTER_NAME":"EARTH","LAUNCH_DATE":"2020-08-07","TLE_LINE1":"1 46072U 20055AX  21313.41485713  .00006248  00000-0  43777-3 0  9995","BSTAR":"0.00043777000000","EPHEMERIS_TYPE":"0","NORAD_CAT_ID":"46072","ECCENTRICITY":"0.00015200","SEMIMAJOR_AXIS":"6925.301","INCLINATION":"53.0545","REV_AT_EPOCH":"7096","MEAN_MOTION_DOT":"0.00006248","SITE":"AFETR"},{"GP_ID":"189336623","TIME_SYSTEM":"UTC","OBJECT_NAME":"STARLINK-1542","PERIAPSIS":"546.167","MEAN_ELEMENT_THEORY":"SGP4","RCS_SIZE":"LARGE","FILE":"3210161","REF_FRAME":"TEME","MEAN_MOTION":"15.06411689","MEAN_ANOMALY":"286.6735","OBJECT_TYPE":"PAYLOAD","PERIOD":"95.591","TLE_LINE2":"2 46073  53.0546 354.8801 0001460  73.4414 286.6735 15.06411689 70980","APOAPSIS":"548.189","MEAN_MOTION_DDOT":"0.0000000000000","DECAY_DATE":null,"ARG_OF_PERICENTER":"73.4414","SITE":"AFETR","INCLINATION":"53.0546","REV_AT_EPOCH":"7098","MEAN_MOTION_DOT":"0.00005305","NORAD_CAT_ID":"46073","ECCENTRICITY":"0.00014600","SEMIMAJOR_AXIS":"6925.313","EPHEMERIS_TYPE":"0","BSTAR":"0.00037468000000","CENTER_NAME":"EARTH","EPOCH":"2021-11-09T11:55:32.756160","TLE_LINE1":"1 46073U 20055AY  21313.49690690  .00005305  00000-0  37468-3 0  9999","LAUNCH_DATE":"2020-08-07","CLASSIFICATION_TYPE":"U","RA_OF_ASC_NODE":"354.8801","COUNTRY_CODE":"US","OBJECT_ID":"2020-055AY","ELEMENT_SET_NO":"999"}];
